CZ-2D R/B               
1 68379U 26062C   26094.27627733  .00016853  00000+0  53734-3 0  9994
2 68379  97.4981 102.6539 0052704  29.2653 331.1522 15.31217091  1439
STARLINK-36296          
1 68380U 26063A   26094.25002315  .00768722  26256-3  18269-2 0  9995
2 68380  97.2832 235.1645 0001265  38.5740  79.3124 15.96726616  2563
STARLINK-37111          
1 68381U 26063B   26094.25002315 -.01942953  10389-2 -57763-2 0  9990
2 68381  97.2831 235.1611 0001794  50.0443  63.9054 15.92600225  2566
STARLINK-36946          
1 68382U 26063C   26094.25002315 -.01943609  10409-2 -57426-2 0  9999
2 68382  97.2826 235.1619 0001745  53.8003  63.2847 15.92720114  2561
STARLINK-37121          
1 68383U 26063D   26094.25002315 -.01902828  10025-2 -55582-2 0  9993
2 68383  97.2827 235.1651 0001889  60.2327  62.9306 15.92935395  2564
STARLINK-37137          
1 68384U 26063E   26094.25002315 -.01940144  10389-2 -56921-2 0  9998
2 68384  97.2829 235.1635 0001760  52.1712  67.6899 15.92855701  2566
STARLINK-37128          
1 68385U 26063F   26094.25002315 -.01944776  10460-2 -56390-2 0  9994
2 68385  97.2828 235.1672 0001697  55.8787  70.5484 15.93083305  2510
STARLINK-37198          
1 68386U 26063G   26094.25002315 -.01936176  10388-2 -55746-2 0  9993
2 68386  97.2822 235.1679 0001691  60.7097  68.4434 15.93217678  2563
STARLINK-37223          
1 68387U 26063H   26094.25002315 -.01954619  10589-2 -55906-2 0  9997
2 68387  97.2822 235.1694 0001738  56.2812  75.9717 15.93346943  2563
STARLINK-37203          
1 68388U 26063J   26094.25002315 -.01935274  10404-2 -55059-2 0  9999
2 68388  97.2819 235.1708 0001519  55.4894  79.9816 15.93447208  2564
STARLINK-37197          
1 68389U 26063K   26094.25002315 -.01944015  10522-2 -54541-2 0  9999
2 68389  97.2821 235.1738 0001756  58.6192  82.5774 15.93714519  2565
STARLINK-37193          
1 68390U 26063L   26093.90688086  .01017168  55684-3  15479-2 0  9991
2 68390  97.2825 234.8145 0000847   0.7763 359.3519 16.04615589  1607
