CCSDS_OMM_VERS = 2.0
CREATION_DATE  = 
ORIGINATOR     = 

OBJECT_NAME    = CZ-2D R/B
OBJECT_ID      = 2026-062C
CENTER_NAME    = EARTH
REF_FRAME      = TEME
TIME_SYSTEM    = UTC
MEAN_ELEMENT_THEORY = SGP/SGP4

EPOCH          = 2026-04-04T06:37:50.361312
MEAN_MOTION    = 15.31217091
ECCENTRICITY   = .00527042
INCLINATION    = 97.4981
RA_OF_ASC_NODE = 102.6539
ARG_OF_PERICENTER = 29.2653
MEAN_ANOMALY   = 331.1522

EPHEMERIS_TYPE = 0
CLASSIFICATION_TYPE = U
NORAD_CAT_ID   = 68379
ELEMENT_SET_NO = 999
REV_AT_EPOCH   = 143
BSTAR          = .53733566E-3
MEAN_MOTION_DOT = .16853E-3
MEAN_MOTION_DDOT = 0

CCSDS_OMM_VERS = 2.0
CREATION_DATE  = 
ORIGINATOR     = 

OBJECT_NAME    = STARLINK-36296
OBJECT_ID      = 2026-063A
CENTER_NAME    = EARTH
REF_FRAME      = TEME
TIME_SYSTEM    = UTC
MEAN_ELEMENT_THEORY = SGP/SGP4

EPOCH          = 2026-04-04T06:00:02.000160
MEAN_MOTION    = 15.96726616
ECCENTRICITY   = .00012651
INCLINATION    = 97.2832
RA_OF_ASC_NODE = 235.1645
ARG_OF_PERICENTER = 38.5740
MEAN_ANOMALY   = 79.3124

EPHEMERIS_TYPE = 0
CLASSIFICATION_TYPE = U
NORAD_CAT_ID   = 68380
ELEMENT_SET_NO = 999
REV_AT_EPOCH   = 256
BSTAR          = .1826938E-2
MEAN_MOTION_DOT = .768722E-2
MEAN_MOTION_DDOT = .26255903E-3

CCSDS_OMM_VERS = 2.0
CREATION_DATE  = 
ORIGINATOR     = 

OBJECT_NAME    = STARLINK-37111
OBJECT_ID      = 2026-063B
CENTER_NAME    = EARTH
REF_FRAME      = TEME
TIME_SYSTEM    = UTC
MEAN_ELEMENT_THEORY = SGP/SGP4

EPOCH          = 2026-04-04T06:00:02.000160
MEAN_MOTION    = 15.92600225
ECCENTRICITY   = .00017946
INCLINATION    = 97.2831
RA_OF_ASC_NODE = 235.1611
ARG_OF_PERICENTER = 50.0443
MEAN_ANOMALY   = 63.9054

EPHEMERIS_TYPE = 0
CLASSIFICATION_TYPE = U
NORAD_CAT_ID   = 68381
ELEMENT_SET_NO = 999
REV_AT_EPOCH   = 256
BSTAR          = -.57763063E-2
MEAN_MOTION_DOT = -.1942953E-1
MEAN_MOTION_DDOT = .10389221E-2

CCSDS_OMM_VERS = 2.0
CREATION_DATE  = 
ORIGINATOR     = 

OBJECT_NAME    = STARLINK-36946
OBJECT_ID      = 2026-063C
CENTER_NAME    = EARTH
REF_FRAME      = TEME
TIME_SYSTEM    = UTC
MEAN_ELEMENT_THEORY = SGP/SGP4

EPOCH          = 2026-04-04T06:00:02.000160
MEAN_MOTION    = 15.92720114
ECCENTRICITY   = .00017458
INCLINATION    = 97.2826
RA_OF_ASC_NODE = 235.1619
ARG_OF_PERICENTER = 53.8003
MEAN_ANOMALY   = 63.2847

EPHEMERIS_TYPE = 0
CLASSIFICATION_TYPE = U
NORAD_CAT_ID   = 68382
ELEMENT_SET_NO = 999
REV_AT_EPOCH   = 256
BSTAR          = -.57426228E-2
MEAN_MOTION_DOT = -.1943609E-1
MEAN_MOTION_DDOT = .1040877E-2

CCSDS_OMM_VERS = 2.0
CREATION_DATE  = 
ORIGINATOR     = 

OBJECT_NAME    = STARLINK-37121
OBJECT_ID      = 2026-063D
CENTER_NAME    = EARTH
REF_FRAME      = TEME
TIME_SYSTEM    = UTC
MEAN_ELEMENT_THEORY = SGP/SGP4

EPOCH          = 2026-04-04T06:00:02.000160
MEAN_MOTION    = 15.92935395
ECCENTRICITY   = .00018893
INCLINATION    = 97.2827
RA_OF_ASC_NODE = 235.1651
ARG_OF_PERICENTER = 60.2327
MEAN_ANOMALY   = 62.9306

EPHEMERIS_TYPE = 0
CLASSIFICATION_TYPE = U
NORAD_CAT_ID   = 68383
ELEMENT_SET_NO = 999
REV_AT_EPOCH   = 256
BSTAR          = -.55582356E-2
MEAN_MOTION_DOT = -.1902828E-1
MEAN_MOTION_DDOT = .1002508E-2

CCSDS_OMM_VERS = 2.0
CREATION_DATE  = 
ORIGINATOR     = 

OBJECT_NAME    = STARLINK-37137
OBJECT_ID      = 2026-063E
CENTER_NAME    = EARTH
REF_FRAME      = TEME
TIME_SYSTEM    = UTC
MEAN_ELEMENT_THEORY = SGP/SGP4

EPOCH          = 2026-04-04T06:00:02.000160
MEAN_MOTION    = 15.92855701
ECCENTRICITY   = .00017605
INCLINATION    = 97.2829
RA_OF_ASC_NODE = 235.1635
ARG_OF_PERICENTER = 52.1712
MEAN_ANOMALY   = 67.6899

EPHEMERIS_TYPE = 0
CLASSIFICATION_TYPE = U
NORAD_CAT_ID   = 68384
ELEMENT_SET_NO = 999
REV_AT_EPOCH   = 256
BSTAR          = -.56921412E-2
MEAN_MOTION_DOT = -.1940144E-1
MEAN_MOTION_DDOT = .10388597E-2

CCSDS_OMM_VERS = 2.0
CREATION_DATE  = 
ORIGINATOR     = 

OBJECT_NAME    = STARLINK-37128
OBJECT_ID      = 2026-063F
CENTER_NAME    = EARTH
REF_FRAME      = TEME
TIME_SYSTEM    = UTC
MEAN_ELEMENT_THEORY = SGP/SGP4

EPOCH          = 2026-04-04T06:00:02.000160
MEAN_MOTION    = 15.93083305
ECCENTRICITY   = .00016974
INCLINATION    = 97.2828
RA_OF_ASC_NODE = 235.1672
ARG_OF_PERICENTER = 55.8787
MEAN_ANOMALY   = 70.5484

EPHEMERIS_TYPE = 0
CLASSIFICATION_TYPE = U
NORAD_CAT_ID   = 68385
ELEMENT_SET_NO = 999
REV_AT_EPOCH   = 251
BSTAR          = -.56389577E-2
MEAN_MOTION_DOT = -.1944776E-1
MEAN_MOTION_DDOT = .10460067E-2

CCSDS_OMM_VERS = 2.0
CREATION_DATE  = 
ORIGINATOR     = 

OBJECT_NAME    = STARLINK-37198
OBJECT_ID      = 2026-063G
CENTER_NAME    = EARTH
REF_FRAME      = TEME
TIME_SYSTEM    = UTC
MEAN_ELEMENT_THEORY = SGP/SGP4

EPOCH          = 2026-04-04T06:00:02.000160
MEAN_MOTION    = 15.93217678
ECCENTRICITY   = .00016916
INCLINATION    = 97.2822
RA_OF_ASC_NODE = 235.1679
ARG_OF_PERICENTER = 60.7097
MEAN_ANOMALY   = 68.4434

EPHEMERIS_TYPE = 0
CLASSIFICATION_TYPE = U
NORAD_CAT_ID   = 68386
ELEMENT_SET_NO = 999
REV_AT_EPOCH   = 256
BSTAR          = -.55746492E-2
MEAN_MOTION_DOT = -.1936176E-1
MEAN_MOTION_DDOT = .10387918E-2

CCSDS_OMM_VERS = 2.0
CREATION_DATE  = 
ORIGINATOR     = 

OBJECT_NAME    = STARLINK-37223
OBJECT_ID      = 2026-063H
CENTER_NAME    = EARTH
REF_FRAME      = TEME
TIME_SYSTEM    = UTC
MEAN_ELEMENT_THEORY = SGP/SGP4

EPOCH          = 2026-04-04T06:00:02.000160
MEAN_MOTION    = 15.93346943
ECCENTRICITY   = .00017388
INCLINATION    = 97.2822
RA_OF_ASC_NODE = 235.1694
ARG_OF_PERICENTER = 56.2812
MEAN_ANOMALY   = 75.9717

EPHEMERIS_TYPE = 0
CLASSIFICATION_TYPE = U
NORAD_CAT_ID   = 68387
ELEMENT_SET_NO = 999
REV_AT_EPOCH   = 256
BSTAR          = -.55905716E-2
MEAN_MOTION_DOT = -.1954619E-1
MEAN_MOTION_DDOT = .10589079E-2

CCSDS_OMM_VERS = 2.0
CREATION_DATE  = 
ORIGINATOR     = 

OBJECT_NAME    = STARLINK-37203
OBJECT_ID      = 2026-063J
CENTER_NAME    = EARTH
REF_FRAME      = TEME
TIME_SYSTEM    = UTC
MEAN_ELEMENT_THEORY = SGP/SGP4

EPOCH          = 2026-04-04T06:00:02.000160
MEAN_MOTION    = 15.93447208
ECCENTRICITY   = .0001519
INCLINATION    = 97.2819
RA_OF_ASC_NODE = 235.1708
ARG_OF_PERICENTER = 55.4894
MEAN_ANOMALY   = 79.9816

EPHEMERIS_TYPE = 0
CLASSIFICATION_TYPE = U
NORAD_CAT_ID   = 68388
ELEMENT_SET_NO = 999
REV_AT_EPOCH   = 256
BSTAR          = -.55059231E-2
MEAN_MOTION_DOT = -.1935274E-1
MEAN_MOTION_DDOT = .10403872E-2

CCSDS_OMM_VERS = 2.0
CREATION_DATE  = 
ORIGINATOR     = 

OBJECT_NAME    = STARLINK-37197
OBJECT_ID      = 2026-063K
CENTER_NAME    = EARTH
REF_FRAME      = TEME
TIME_SYSTEM    = UTC
MEAN_ELEMENT_THEORY = SGP/SGP4

EPOCH          = 2026-04-04T06:00:02.000160
MEAN_MOTION    = 15.93714519
ECCENTRICITY   = .00017565
INCLINATION    = 97.2821
RA_OF_ASC_NODE = 235.1738
ARG_OF_PERICENTER = 58.6192
MEAN_ANOMALY   = 82.5774

EPHEMERIS_TYPE = 0
CLASSIFICATION_TYPE = U
NORAD_CAT_ID   = 68389
ELEMENT_SET_NO = 999
REV_AT_EPOCH   = 256
BSTAR          = -.54541477E-2
MEAN_MOTION_DOT = -.1944015E-1
MEAN_MOTION_DDOT = .10521995E-2

CCSDS_OMM_VERS = 2.0
CREATION_DATE  = 
ORIGINATOR     = 

OBJECT_NAME    = STARLINK-37193
OBJECT_ID      = 2026-063L
CENTER_NAME    = EARTH
REF_FRAME      = TEME
TIME_SYSTEM    = UTC
MEAN_ELEMENT_THEORY = SGP/SGP4

EPOCH          = 2026-04-03T21:45:54.506304
MEAN_MOTION    = 16.04615589
ECCENTRICITY   = .00008478
INCLINATION    = 97.2825
RA_OF_ASC_NODE = 234.8145
ARG_OF_PERICENTER = 0.7763
MEAN_ANOMALY   = 359.3519

EPHEMERIS_TYPE = 0
CLASSIFICATION_TYPE = U
NORAD_CAT_ID   = 68390
ELEMENT_SET_NO = 999
REV_AT_EPOCH   = 160
BSTAR          = .1547903E-2
MEAN_MOTION_DOT = .1017168E-1
MEAN_MOTION_DDOT = .55684259E-3

